{
    "links": {
        "self": "http://www.neowsapp.com/rest/v1/neo/3767871?api_key=iIulBulltgU6a56xZRHN4H3l9WmuAYTsLGpBGhQ2"
    },
    "id": "3767871",
    "neo_reference_id": "3767871",
    "name": "(2017 BN92)",
    "designation": "2017 BN92",
    "nasa_jpl_url": "http://ssd.jpl.nasa.gov/sbdb.cgi?sstr=3767871",
    "absolute_magnitude_h": 25.6,
    "estimated_diameter": {
        "kilometers": {
            "estimated_diameter_min": 0.0201629919,
            "estimated_diameter_max": 0.0450858206
        },
        "meters": {
            "estimated_diameter_min": 20.1629919443,
            "estimated_diameter_max": 45.0858206172
        },
        "miles": {
            "estimated_diameter_min": 0.0125286985,
            "estimated_diameter_max": 0.0280150214
        },
        "feet": {
            "estimated_diameter_min": 66.1515504905,
            "estimated_diameter_max": 147.9193637137
        }
    },
    "is_potentially_hazardous_asteroid": false,
    "close_approach_data": [
        {
            "close_approach_date": "1919-02-24",
            "close_approach_date_full": "1919-Feb-24 22:12",
            "epoch_date_close_approach": -1604713680000,
            "relative_velocity": {
                "kilometers_per_second": "9.1209681539",
                "kilometers_per_hour": "32835.4853539288",
                "miles_per_hour": "20402.6936633898"
            },
            "miss_distance": {
                "astronomical": "0.0919555503",
                "lunar": "35.7707090667",
                "kilometers": "13756354.459557861",
                "miles": "8547802.2943100418"
            },
            "orbiting_body": "Earth"
        },
        {
            "close_approach_date": "1926-12-09",
            "close_approach_date_full": "1926-Dec-09 17:08",
            "epoch_date_close_approach": -1358923920000,
            "relative_velocity": {
                "kilometers_per_second": "13.6719011643",
                "kilometers_per_hour": "49218.8441916096",
                "miles_per_hour": "30582.6757145032"
            },
            "miss_distance": {
                "astronomical": "0.2316236686",
                "lunar": "90.1016070854",
                "kilometers": "34650407.464145882",
                "miles": "21530764.8033898916"
            },
            "orbiting_body": "Earth"
        },
        {
            "close_approach_date": "2009-03-11",
            "close_approach_date_full": "2009-Mar-11 09:16",
            "epoch_date_close_approach": 1236762960000,
            "relative_velocity": {
                "kilometers_per_second": "13.6503024861",
                "kilometers_per_hour": "49141.0889499935",
                "miles_per_hour": "30534.3616311779"
            },
            "miss_distance": {
                "astronomical": "0.2271052475",
                "lunar": "88.3439412775",
                "kilometers": "33974461.291822825",
                "miles": "21110751.328191985"
            },
            "orbiting_body": "Earth"
        },
        {
            "close_approach_date": "2017-02-01",
            "close_approach_date_full": "2017-Feb-01 15:23",
            "epoch_date_close_approach": 1485962580000,
            "relative_velocity": {
                "kilometers_per_second": "6.3035688415",
                "kilometers_per_hour": "22692.8478293788",
                "miles_per_hour": "14100.4531415382"
            },
            "miss_distance": {
                "astronomical": "0.0124370849",
                "lunar": "4.8380260261",
                "kilometers": "1860561.410049163",
                "miles": "1156099.2511699294"
            },
            "orbiting_body": "Earth"
        },
        {
            "close_approach_date": "2020-01-16",
            "close_approach_date_full": "2020-Jan-16 22:21",
            "epoch_date_close_approach": 1579213260000,
            "relative_velocity": {
                "kilometers_per_second": "13.8670819803",
                "kilometers_per_hour": "49921.4951291837",
                "miles_per_hour": "31019.2756817975"
            },
            "miss_distance": {
                "astronomical": "0.035925789",
                "lunar": "13.975131921",
                "kilometers": "5374421.51246943",
                "miles": "3339510.672680934"
            },
            "orbiting_body": "Mars"
        }
    ],
    "orbital_data": {
        "orbit_id": "9",
        "orbit_determination_date": "2019-03-31 07:35:11",
        "first_observation_date": "2017-01-31",
        "last_observation_date": "2017-03-02",
        "data_arc_in_days": 30,
        "observations_used": 89,
        "orbit_uncertainty": "7",
        "minimum_orbit_intersection": ".0107731",
        "jupiter_tisserand_invariant": "3.772",
        "epoch_osculation": "2459000.5",
        "eccentricity": ".4828956356743375",
        "semi_major_axis": "1.921352108621282",
        "inclination": "1.072396422663604",
        "ascending_node_longitude": "323.9048288022288",
        "orbital_period": "972.7670887631873",
        "perihelion_distance": ".9935395607743794",
        "perihelion_argument": "160.0132545069021",
        "aphelion_distance": "2.849164656468185",
        "perihelion_time": "2458751.147078358885",
        "mean_anomaly": "92.28010777475481",
        "mean_motion": ".3700783097603739",
        "equinox": "J2000",
        "orbit_class": {
            "orbit_class_type": "APO",
            "orbit_class_description": "Near-Earth asteroid orbits which cross the Earth’s orbit similar to that of 1862 Apollo",
            "orbit_class_range": "a (semi-major axis) > 1.0 AU; q (perihelion) < 1.017 AU"
        }
    },
    "is_sentry_object": false
}